[{"OBJECT_NAME":"STARLINK-32742","OBJECT_ID":"2025-008U","EPOCH":"2026-03-09T22:11:51.632160","MEAN_MOTION":15.27598516,"ECCENTRICITY":0.00015553,"INCLINATION":42.9999,"RA_OF_ASC_NODE":276.3047,"ARG_OF_PERICENTER":25.5196,"MEAN_ANOMALY":334.5732,"EPHEMERIS_TYPE":0,"CLASSIFICATION_TYPE":"U","NORAD_CAT_ID":62605,"ELEMENT_SET_NO":999,"REV_AT_EPOCH":6565,"BSTAR":0.0011855461,"MEAN_MOTION_DOT":0.00032524,"MEAN_MOTION_DDOT":0},{"OBJECT_NAME":"TRANSPORTER-12 OBJECT BT","OBJECT_ID":"2025-009BT","EPOCH":"2026-03-09T17:08:24.281088","MEAN_MOTION":15.27872239,"ECCENTRICITY":0.00036816,"INCLINATION":97.4094,"RA_OF_ASC_NODE":151.5992,"ARG_OF_PERICENTER":313.5044,"MEAN_ANOMALY":46.5889,"EPHEMERIS_TYPE":0,"CLASSIFICATION_TYPE":"U","NORAD_CAT_ID":62674,"ELEMENT_SET_NO":999,"REV_AT_EPOCH":12136,"BSTAR":0.000510288,"MEAN_MOTION_DOT":0.00013824,"MEAN_MOTION_DDOT":0}]
